{
    "type": "FeatureCollection",
    "features": [
        {
            "type": "Feature",
            "geometry": {
                "type": "MultiLineString",
                "coordinates": [
                    [[4.9,43.068], [6, 43.068], [7.1,43.068]],
                    [[4.9,43.580], [6, 43.580], [7, 43.580], [8, 43.580], [8.5,43.580]],
                    [[4.9,44.087], [6, 44.087], [7, 44.087], [8, 44.087], [8.5,44.087]],
                    [[4.9,44.590], [6, 44.590], [7, 44.590], [8, 44.590], [8.5,44.590]],
                    [[4.9,45.089], [6, 45.089], [7, 45.089], [8, 45.089], [8.5,45.089]],
                    [[4.9,45.583], [6, 45.583], [7, 45.583], [8, 45.583], [9, 45.583], [10, 45.583], [11, 45.583], [12, 45.583], [14, 45.583], [15.6,45.583]],
                    [[4.9,46.073], [6, 46.073], [7, 46.073], [8, 46.073], [9, 46.073], [10, 46.073], [11, 46.073], [12, 46.073], [14, 46.073], [15.6,46.073]],
                    [[4.9,46.558], [6, 46.558], [7, 46.558], [8, 46.558], [9, 46.558], [10, 46.558], [11, 46.558], [12, 46.558], [14, 46.558], [15.6,46.558]],
                    [[7.0,47.040], [6, 47.040], [7, 47.040], [8, 47.040], [9, 47.040], [10, 47.040], [11, 47.040], [12, 47.040], [14, 47.040], [15.6,47.040]],
                    [[7.0,47.517], [6, 47.517], [7, 47.517], [8, 47.517], [9, 47.517], [10, 47.517], [11, 47.517], [12, 47.517], [14, 47.517], [15.6,47.517]],
                    [[11, 47.989], [12, 47.989], [13, 47.989], [14.1,47.989]],

                    [[4.921, 43],    [4.921878,46.6]],
                    [[5.624, 43],    [5.624999,46.6]],
                    [[6.328, 43],    [6.328128,47.6]],
                    [[7.031, 43],    [7.031248,47.6]],
                    [[7.734, 43.58], [7.734378,47.6]],
                    [[8.437, 43.58], [8.437498,47.6]],
                    [[9.140, 45.58],  [9.140628,47.6]],
                    [[9.843, 45.58],    [9.843748,47.6]],
                    [[10.546,45.58],   [10.546877,48.6]],
                    [[11.249,45.58], [11.249998,48.6]],
                    [[11.953,45.58], [11.953127,48.6]],

                    [[14.062,45.58], [14.062497,48.6]],
                    [[14.765,45.58], [14.765626,48.6]],
                    [[15.558,45.58], [15.558862,48.6]]
                ]
            },
            "properties": {
                "name": "TMSz9",
                "stroke": "#ffff00", "stroke-width":  2, "stroke-opacity": 0.8
            }
            },
            {
            "type": "Feature",
            "geometry": {
                "type": "MultiLineString",
                "coordinates": [
                    [[5,  44.339566], [5.5, 44.339566], [6, 44.339566], [6.5, 44.339566], [7, 44.339566], [7.5, 44.339566], [8, 44.339566], [8.5,44.339566]],
                    [[9.1,45.828796], [9.5, 45.828796], [10, 45.828796], [10.5, 45.828796], [11, 45.828796], [11.5, 45.828796], [12,45.828796]],
                    [[5,  46.437858], [5.5, 46.437858], [6, 46.437858], [6.5,46.437858 ], [7, 46.437858], [7.5, 46.437858], [8, 46.437858], [8.5,46.437858]],
                    [[11, 47.754101], [11.5, 47.754101], [12, 47.754101], [12.5, 47.754101], [13, 47.754101], [13.5, 47.754101], [14.1,47.754101]]
                ]
            },
            "properties": {
                "name": "TMS z9/10/11 chosen",
                "stroke": "#ff0000", "stroke-width":  1
            }
        }
    ]
}
